{"type": "FeatureCollection", "features": [ {"type": "Feature", "properties": {"norad_id": 30558, "name": "FENGYUN 1C DEB", "group": "fengyun-1c-debris", "lat": -19.991985034150122, "lon": 142.80803005668602, "alt_km": 1183.6472987361567, "timestamp": "2025-12-25T09:48:52.567437+00:00", "meta": {"OBJECT_NAME": "FENGYUN 1C DEB", "OBJECT_ID": "1999-025AKY", "EPOCH": "2025-12-18T02:35:59.256672", "MEAN_MOTION": 13.28535877, "ECCENTRICITY": 0.04271131, "INCLINATION": 99.4659, "RA_OF_ASC_NODE": 132.6231, "ARG_OF_PERICENTER": 260.3076, "MEAN_ANOMALY": 94.9567, "EPHEMERIS_TYPE": 0, "CLASSIFICATION_TYPE": "U", "NORAD_CAT_ID": 30558, "ELEMENT_SET_NO": 999, "REV_AT_EPOCH": 90829, "BSTAR": 0.0032374201, "MEAN_MOTION_DOT": 2.396e-05, "MEAN_MOTION_DDOT": 0}, "tle": {"line1": "1 30558U 99025AKY 25352.10832473  .00002396  00000+0  32374-2 0  9991", "line2": "2 30558  99.4659 132.6231 0427113 260.3076  94.9567 13.28535877908292"}}, "geometry": {"type": "Point", "coordinates": [142.80803005668602, -19.991985034150122]}}, {"type": "Feature", "properties": {"norad_id": 30560, "name": "FENGYUN 1C DEB", "group": "fengyun-1c-debris", "lat": 70.27551763757614, "lon": -32.3429632108636, "alt_km": 846.3693444016471, "timestamp": "2025-12-25T09:48:52.567447+00:00", "meta": {"OBJECT_NAME": "FENGYUN 1C DEB", "OBJECT_ID": "1999-025ALA", "EPOCH": "2025-12-24T12:02:12.466752", "MEAN_MOTION": 14.17038441, "ECCENTRICITY": 0.01154555, "INCLINATION": 98.6643, "RA_OF_ASC_NODE": 351.9418, "ARG_OF_PERICENTER": 177.8466, "MEAN_ANOMALY": 309.2974, "EPHEMERIS_TYPE": 0, "CLASSIFICATION_TYPE": "U", "NORAD_CAT_ID": 30560, "ELEMENT_SET_NO": 999, "REV_AT_EPOCH": 97535, "BSTAR": 0.00021403873, "MEAN_MOTION_DOT": 4.17e-06, "MEAN_MOTION_DDOT": 0}, "tle": {"line1": "1 30560U 99025ALA 25358.50153318  .00000417  00000+0  21404-3 0  9993", "line2": "2 30560  98.6643 351.9418 0115455 177.8466 309.2974 14.17038441975359"}}, "geometry": {"type": "Point", "coordinates": [-32.3429632108636, 70.27551763757614]}}, {"type": "Feature", "properties": {"norad_id": 30561, "name": "FENGYUN 1C DEB", "group": "fengyun-1c-debris", "lat": -81.21107305638229, "lon": 84.50298696011686, "alt_km": 905.2091107841852, "timestamp": "2025-12-25T09:48:52.567456+00:00", "meta": {"OBJECT_NAME": "FENGYUN 1C DEB", "OBJECT_ID": "1999-025ALB", "EPOCH": "2025-12-24T15:49:33.312576", "MEAN_MOTION": 14.11285201, "ECCENTRICITY": 0.00607608, "INCLINATION": 98.7247, "RA_OF_ASC_NODE": 0.4578, "ARG_OF_PERICENTER": 80.6615, "MEAN_ANOMALY": 344.563, "EPHEMERIS_TYPE": 0, "CLASSIFICATION_TYPE": "U", "NORAD_CAT_ID": 30561, "ELEMENT_SET_NO": 999, "REV_AT_EPOCH": 97146, "BSTAR": 0.0003278808, "MEAN_MOTION_DOT": 5.6e-06, "MEAN_MOTION_DDOT": 0}, "tle": {"line1": "1 30561U 99025ALB 25358.65941334  .00000560  00000+0  32788-3 0  9999", "line2": "2 30561  98.7247   0.4578 0060760  80.6615 344.5630 14.11285201971460"}}, "geometry": {"type": "Point", "coordinates": [84.50298696011686, -81.21107305638229]}}, {"type": "Feature", "properties": {"norad_id": 30562, "name": "FENGYUN 1C DEB", "group": "fengyun-1c-debris", "lat": -41.69755770540316, "lon": 74.99471629794591, "alt_km": 820.2550376185236, "timestamp": "2025-12-25T09:48:52.567467+00:00", "meta": {"OBJECT_NAME": "FENGYUN 1C DEB", "OBJECT_ID": "1999-025ALC", "EPOCH": "2025-12-24T16:10:01.353792", "MEAN_MOTION": 14.23133182, "ECCENTRICITY": 0.00599666, "INCLINATION": 98.7626, "RA_OF_ASC_NODE": 66.365, "ARG_OF_PERICENTER": 230.9594, "MEAN_ANOMALY": 281.0374, "EPHEMERIS_TYPE": 0, "CLASSIFICATION_TYPE": "U", "NORAD_CAT_ID": 30562, "ELEMENT_SET_NO": 999, "REV_AT_EPOCH": 97169, "BSTAR": 0.0015647244, "MEAN_MOTION_DOT": 3.556e-05, "MEAN_MOTION_DDOT": 0}, "tle": {"line1": "1 30562U 99025ALC 25358.67362678  .00003556  00000+0  15647-2 0  9992", "line2": "2 30562  98.7626  66.3650 0059966 230.9594 281.0374 14.23133182971694"}}, "geometry": {"type": "Point", "coordinates": [74.99471629794591, -41.69755770540316]}}, {"type": "Feature", "properties": {"norad_id": 30564, "name": "FENGYUN 1C DEB", "group": "fengyun-1c-debris", "lat": -3.6022118023833753, "lon": -169.72369890828466, "alt_km": 900.1309820532024, "timestamp": "2025-12-25T09:48:52.567477+00:00", "meta": {"OBJECT_NAME": "FENGYUN 1C DEB", "OBJECT_ID": "1999-025ALE", "EPOCH": "2025-12-24T07:24:54.030816", "MEAN_MOTION": 14.05780963, "ECCENTRICITY": 0.02029283, "INCLINATION": 98.7959, "RA_OF_ASC_NODE": 9.7662, "ARG_OF_PERICENTER": 86.502, "MEAN_ANOMALY": 291.0084, "EPHEMERIS_TYPE": 0, "CLASSIFICATION_TYPE": "U", "NORAD_CAT_ID": 30564, "ELEMENT_SET_NO": 999, "REV_AT_EPOCH": 96458, "BSTAR": 0.00059313782, "MEAN_MOTION_DOT": 1.125e-05, "MEAN_MOTION_DDOT": 0}, "tle": {"line1": "1 30564U 99025ALE 25358.30895869  .00001125  00000+0  59314-3 0  9997", "line2": "2 30564  98.7959   9.7662 0202928  86.5020 291.0084 14.05780963964580"}}, "geometry": {"type": "Point", "coordinates": [-169.72369890828466, -3.6022118023833753]}}, {"type": "Feature", "properties": {"norad_id": 30565, "name": "FENGYUN 1C DEB", "group": "fengyun-1c-debris", "lat": 12.934534466075966, "lon": 50.839088293678294, "alt_km": 952.5691721326075, "timestamp": "2025-12-25T09:48:52.567487+00:00", "meta": {"OBJECT_NAME": "FENGYUN 1C DEB", "OBJECT_ID": "1999-025ALF", "EPOCH": "2025-12-24T14:25:15.635424", "MEAN_MOTION": 14.10013341, "ECCENTRICITY": 0.01427116, "INCLINATION": 98.4536, "RA_OF_ASC_NODE": 228.1221, "ARG_OF_PERICENTER": 322.6518, "MEAN_ANOMALY": 65.4097, "EPHEMERIS_TYPE": 0, "CLASSIFICATION_TYPE": "U", "NORAD_CAT_ID": 30565, "ELEMENT_SET_NO": 999, "REV_AT_EPOCH": 96094, "BSTAR": 0.0018093624, "MEAN_MOTION_DOT": 3.469e-05, "MEAN_MOTION_DDOT": 0}, "tle": {"line1": "1 30565U 99025ALF 25358.60087541  .00003469  00000+0  18094-2 0  9993", "line2": "2 30565  98.4536 228.1221 0142711 322.6518  65.4097 14.10013341960944"}}, "geometry": {"type": "Point", "coordinates": [50.839088293678294, 12.934534466075966]}}, {"type": "Feature", "properties": {"norad_id": 30566, "name": "FENGYUN 1C DEB", "group": "fengyun-1c-debris", "lat": -8.169277644918836, "lon": -133.04764079098896, "alt_km": 819.744073964036, "timestamp": "2025-12-25T09:48:52.567498+00:00", "meta": {"OBJECT_NAME": "FENGYUN 1C DEB", "OBJECT_ID": "1999-025ALG", "EPOCH": "2025-12-24T14:56:08.790144", "MEAN_MOTION": 14.11740533, "ECCENTRICITY": 0.00683732, "INCLINATION": 99.2152, "RA_OF_ASC_NODE": 47.4801, "ARG_OF_PERICENTER": 149.5141, "MEAN_ANOMALY": 2.5299, "EPHEMERIS_TYPE": 0, "CLASSIFICATION_TYPE": "U", "NORAD_CAT_ID": 30566, "ELEMENT_SET_NO": 999, "REV_AT_EPOCH": 96550, "BSTAR": 0.0012295694, "MEAN_MOTION_DOT": 2.244e-05, "MEAN_MOTION_DDOT": 0}, "tle": {"line1": "1 30566U 99025ALG 25358.62232396  .00002244  00000+0  12296-2 0  9994", "line2": "2 30566  99.2152  47.4801 0068373 149.5141   2.5299 14.11740533965507"}}, "geometry": {"type": "Point", "coordinates": [-133.04764079098896, -8.169277644918836]}}, {"type": "Feature", "properties": {"norad_id": 30567, "name": "FENGYUN 1C DEB", "group": "fengyun-1c-debris", "lat": 15.20268298838472, "lon": -12.642213335609338, "alt_km": 922.3251966157295, "timestamp": "2025-12-25T09:48:52.567507+00:00", "meta": {"OBJECT_NAME": "FENGYUN 1C DEB", "OBJECT_ID": "1999-025ALH", "EPOCH": "2025-12-24T22:05:27.857184", "MEAN_MOTION": 14.08909736, "ECCENTRICITY": 0.01093257, "INCLINATION": 98.7764, "RA_OF_ASC_NODE": 349.2881, "ARG_OF_PERICENTER": 154.9213, "MEAN_ANOMALY": 265.1872, "EPHEMERIS_TYPE": 0, "CLASSIFICATION_TYPE": "U", "NORAD_CAT_ID": 30567, "ELEMENT_SET_NO": 999, "REV_AT_EPOCH": 96945, "BSTAR": 0.00032678841, "MEAN_MOTION_DOT": 5.55e-06, "MEAN_MOTION_DDOT": 0}, "tle": {"line1": "1 30567U 99025ALH 25358.92046131  .00000555  00000+0  32679-3 0  9999", "line2": "2 30567  98.7764 349.2881 0109325 154.9213 265.1872 14.08909736969455"}}, "geometry": {"type": "Point", "coordinates": [-12.642213335609338, 15.20268298838472]}}, {"type": "Feature", "properties": {"norad_id": 30568, "name": "FENGYUN 1C DEB", "group": "fengyun-1c-debris", "lat": -33.826133651101266, "lon": -15.576823428885893, "alt_km": 707.9553279593129, "timestamp": "2025-12-25T09:48:52.567518+00:00", "meta": {"OBJECT_NAME": "FENGYUN 1C DEB", "OBJECT_ID": "1999-025ALJ", "EPOCH": "2025-12-24T10:00:31.961376", "MEAN_MOTION": 14.55457484, "ECCENTRICITY": 0.00159085, "INCLINATION": 98.9422, "RA_OF_ASC_NODE": 169.4185, "ARG_OF_PERICENTER": 159.1803, "MEAN_ANOMALY": 260.5793, "EPHEMERIS_TYPE": 0, "CLASSIFICATION_TYPE": "U", "NORAD_CAT_ID": 30568, "ELEMENT_SET_NO": 999, "REV_AT_EPOCH": 97829, "BSTAR": 0.0035269438, "MEAN_MOTION_DOT": 0.00015346, "MEAN_MOTION_DDOT": 0}, "tle": {"line1": "1 30568U 99025ALJ 25358.41703659  .00015346  00000+0  35269-2 0  9990", "line2": "2 30568  98.9422 169.4185 0015908 159.1803 260.5793 14.55457484978296"}}, "geometry": {"type": "Point", "coordinates": [-15.576823428885893, -33.826133651101266]}}, {"type": "Feature", "properties": {"norad_id": 30569, "name": "FENGYUN 1C DEB", "group": "fengyun-1c-debris", "lat": -9.589212165849744, "lon": 140.85119209512823, "alt_km": 649.161629366241, "timestamp": "2025-12-25T09:48:52.567528+00:00", "meta": {"OBJECT_NAME": "FENGYUN 1C DEB", "OBJECT_ID": "1999-025ALK", "EPOCH": "2025-12-24T20:49:35.919840", "MEAN_MOTION": 14.74174733, "ECCENTRICITY": 0.00058167, "INCLINATION": 98.7366, "RA_OF_ASC_NODE": 138.7796, "ARG_OF_PERICENTER": 41.3268, "MEAN_ANOMALY": 318.8378, "EPHEMERIS_TYPE": 0, "CLASSIFICATION_TYPE": "U", "NORAD_CAT_ID": 30569, "ELEMENT_SET_NO": 999, "REV_AT_EPOCH": 98385, "BSTAR": 0.0036967675, "MEAN_MOTION_DOT": 0.00024428, "MEAN_MOTION_DDOT": 0}, "tle": {"line1": "1 30569U 99025ALK 25358.86777685  .00024428  00000+0  36968-2 0  9998", "line2": "2 30569  98.7366 138.7796 0005816  41.3268 318.8378 14.74174733983851"}}, "geometry": {"type": "Point", "coordinates": [140.85119209512823, -9.589212165849744]}}]}